IRIDIUM 171             
1 43929U 19002H   25260.99433942 -.00000095  00000+0 -41005-4 0  9996
2 43929  86.3931 107.6627 0002227  80.6676 279.4771 14.34217135349941
IRIDIUM 170             
1 43930U 19002J   25261.02247237  .00000771  00000+0  11836-3 0  9990
2 43930  86.6049 107.3855 0002414  86.1686 273.9807 14.72251325359217
IRIDIUM 167             
1 43931U 19002K   25260.98799734  .00000069  00000+0  17614-4 0  9990
2 43931  86.3922 107.4093 0002538  82.9082 277.2402 14.34218048349941
IRIDIUM 181             
1 56726U 23068S   25261.19658008  .00000411  00000+0  11605-3 0  9999
2 56726  86.4581 170.4299 0002251  69.4092 290.7350 14.43308933123204
IRIDIUM 177             
1 56727U 23068T   25261.02331668  .00000413  00000+0  50835-4 0  9993
2 56727  86.1916  98.0557 0002415  81.8818 278.2677 14.80230571126100
IRIDIUM 174             
1 56728U 23068U   25261.01013205  .00000322  00000+0  47082-4 0  9996
2 56728  86.6057 107.5104 0002225  97.1964 262.9506 14.72250854125979
IRIDIUM 178             
1 56729U 23068V   25261.08005739  .00001099  00000+0  14112-3 0  9996
2 56729  86.6569 139.0920 0002566  87.5329 272.6186 14.80236803126116
IRIDIUM 179             
1 56730U 23068W   25260.73667509  .00001057  00000+0  13560-3 0  9998
2 56730  86.6828 147.3880 0002892  82.8106 277.3445 14.80238432126060
